NORAD_CAT_ID,OBJECT_NAME,OBJECT_TYPE,EPOCH,MEAN_MOTION,ECCENTRICITY,INCLINATION,RA_OF_ASC_NODE,ARG_OF_PERICENTER,MEAN_ANOMALY,BSTAR,MEAN_MOTION_DOT,MEAN_MOTION_DDOT,TLE_LINE0,TLE_LINE1,TLE_LINE2,SEMIMAJOR_AXIS,PERIOD,APOGEE,PERIGEE,DECAYED
51728.0,STARLINK-3448,PAYLOAD,2023-05-03 20:15:18,15.08841815,8.08e-05,53.217,311.6567,87.0721,273.0364,4.1598e-05,3.74e-06,0.0,0 STARLINK-3448,1 51728U 22016Q   23123.84396312  .00000374  00000-0  41598-4 0  9996,2 51728  53.2170 311.6567 0000808  87.0721 273.0364 15.08841815 66438,6917.875,95.437,540.299,539.181,0.0
51728.0,STARLINK-3448,PAYLOAD,2023-05-04 07:23:00,15.08842012,8.19e-05,53.2168,309.5752,79.1084,281.0,-7.7827e-06,-4.12e-06,0.0,0 STARLINK-3448,1 51728U 22016Q   23124.30764355 -.00000412  00000-0 -77827-5 0  9994,2 51728  53.2168 309.5752 0000819  79.1084 281.0000 15.08842012 66507,6917.874,95.437,540.306,539.173,0.0
51728.0,STARLINK-3448,PAYLOAD,2023-05-04 21:41:28,15.0884889,7.71e-05,53.2166,306.8986,79.6816,280.4263,9.0531e-05,1.154e-05,0.0,0 STARLINK-3448,1 51728U 22016Q   23124.90379769  .00001154  00000-0  90531-4 0  9999,2 51728  53.2166 306.8986 0000771  79.6816 280.4263 15.08848890 67728,6917.853,95.437,540.252,539.185,0.0
51728.0,STARLINK-3448,PAYLOAD,2023-05-05 05:38:24,15.08842756,8.15e-05,53.2168,305.4123,77.9694,282.1389,8.0112e-05,9.88e-06,0.0,0 STARLINK-3448,1 51728U 22016Q   23125.23500204  .00000988  00000-0  80112-4 0  9994,2 51728  53.2168 305.4123 0000815  77.9694 282.1389 15.08842756 67770,6917.872,95.437,540.301,539.173,0.0
51728.0,STARLINK-3448,PAYLOAD,2023-05-05 15:10:43,15.08833194,7.18e-05,53.216,303.627,88.2653,271.8422,0.00010551,1.392e-05,0.0,0 STARLINK-3448,1 51728U 22016Q   23125.63244746  .00001392  00000-0  10551-3 0  9993,2 51728  53.2160 303.6270 0000718  88.2653 271.8422 15.08833194 67833,6917.901,95.438,540.263,539.269,0.0
51728.0,STARLINK-3448,PAYLOAD,2023-05-05 19:56:52,15.08842655,9.11e-05,53.2164,302.7352,82.9368,277.1728,7.1974e-05,8.58e-06,0.0,0 STARLINK-3448,1 51728U 22016Q   23125.83116270  .00000858  00000-0  71974-4 0  9998,2 51728  53.2164 302.7352 0000911  82.9368 277.1728 15.08842655 67860,6917.872,95.437,540.367,539.107,0.0
51728.0,STARLINK-3448,PAYLOAD,2023-05-06 11:50:43,15.08842883,8.96e-05,53.2162,299.7597,97.7444,262.365,9.5361e-05,1.23e-05,0.0,0 STARLINK-3448,1 51728U 22016Q   23126.49356237  .00001230  00000-0  95361-4 0  9991,2 51728  53.2162 299.7597 0000896  97.7444 262.3650 15.08842883 66834,6917.872,95.437,540.356,539.117,0.0
51728.0,STARLINK-3448,PAYLOAD,2023-05-06 18:12:15,15.08851356,8.67e-05,53.2164,298.5727,78.9297,281.1792,0.00017529,2.504e-05,0.0,0 STARLINK-3448,1 51728U 22016Q   23126.75851592  .00002504  00000-0  17529-3 0  9998,2 51728  53.2164 298.5727 0000867  78.9297 281.1792 15.08851356 68005,6917.846,95.437,540.31,539.111,0.0
51728.0,STARLINK-3448,PAYLOAD,2023-05-07 18:03:03,15.08839415,8.88e-05,53.2162,294.1121,83.6311,276.4783,5.998e-05,6.67e-06,0.0,0 STARLINK-3448,1 51728U 22016Q   23127.75212779  .00000667  00000-0  59980-4 0  9993,2 51728  53.2162 294.1121 0000888  83.6311 276.4783 15.08839415 68151,6917.882,95.438,540.361,539.133,0.0
51728.0,STARLINK-3448,PAYLOAD,2023-05-08 17:53:50,15.08845511,8.08e-05,53.2155,289.6532,81.0441,279.0643,7.4136e-05,8.93e-06,0.0,0 STARLINK-3448,1 51728U 22016Q   23128.74572477  .00000893  00000-0  74136-4 0  9998,2 51728  53.2155 289.6532 0000808  81.0441 279.0643 15.08845511 67175,6917.864,95.437,540.288,539.17,0.0
51728.0,STARLINK-3448,PAYLOAD,2023-05-10 12:49:16,15.08837161,8.48e-05,53.2167,281.623,87.4006,272.7083,5.4674e-05,5.82e-06,0.0,0 STARLINK-3448,1 51728U 22016Q   23130.53421350  .00000582  00000-0  54674-4 0  9991,2 51728  53.2167 281.6230 0000848  87.4006 272.7083 15.08837161 67446,6917.889,95.438,540.341,539.167,0.0
51728.0,STARLINK-3448,PAYLOAD,2023-05-10 17:35:24,15.08849109,8.53e-05,53.2164,280.731,96.5584,263.5506,5.5674e-05,5.99e-06,0.0,0 STARLINK-3448,1 51728U 22016Q   23130.73292572  .00000599  00000-0  55674-4 0  9994,2 51728  53.2164 280.7310 0000853  96.5584 263.5506 15.08849109 68602,6917.853,95.437,540.308,539.127,0.0
51728.0,STARLINK-3448,PAYLOAD,2023-05-11 17:26:11,15.08845364,9.76e-05,53.2181,276.27,79.0586,281.0516,7.125e-05,8.47e-06,0.0,0 STARLINK-3448,1 51728U 22016Q   23131.72652769  .00000847  00000-0  71250-4 0  9996,2 51728  53.2181 276.2700 0000976  79.0586 281.0516 15.08845364 68759,6917.864,95.437,540.404,539.054,0.0
51728.0,STARLINK-3448,PAYLOAD,2023-05-12 02:58:31,15.0884031,9.53e-05,53.2169,274.4869,75.1591,284.9506,7.2568e-05,8.67e-06,0.0,0 STARLINK-3448,1 51728U 22016Q   23132.12397033  .00000867  00000-0  72568-4 0  9996,2 51728  53.2169 274.4869 0000953  75.1591 284.9506 15.08840310 67687,6917.879,95.438,540.404,539.085,0.0
51728.0,STARLINK-3448,PAYLOAD,2023-05-13 12:21:37,15.08841192,9.79e-05,53.2182,268.2389,114.3159,245.7936,-1.6111e-05,-5.44e-06,0.0,0 STARLINK-3448,1 51728U 22016Q   23133.51501325 -.00000544  00000-0 -16111-4 0  9997,2 51728  53.2182 268.2389 0000979 114.3159 245.7936 15.08841192 67898,6917.877,95.437,540.419,539.064,0.0
51728.0,STARLINK-3448,PAYLOAD,2023-05-13 13:57:00,15.08832872,0.0001062,53.2178,267.9432,107.9885,252.1223,0.0001229,1.668e-05,0.0,0 STARLINK-3448,1 51728U 22016Q   23133.58125369  .00001668  00000-0  12290-3 0  9993,2 51728  53.2178 267.9432 0001062 107.9885 252.1223 15.08832872 69030,6917.902,95.438,540.502,539.032,0.0
51728.0,STARLINK-3448,PAYLOAD,2023-05-13 17:07:46,15.08844214,9.64e-05,53.2177,267.3475,96.6671,263.443,1.0983e-05,-1.13e-06,0.0,0 STARLINK-3448,1 51728U 22016Q   23133.71373077 -.00000113  00000-0  10983-4 0  9992,2 51728  53.2177 267.3475 0000964  96.6671 263.4430 15.08844214 67921,6917.868,95.437,540.399,539.066,0.0
51728.0,STARLINK-3448,PAYLOAD,2023-05-14 13:47:47,15.0883799,0.0001002,53.2169,263.4819,95.3951,264.7155,7.141e-05,8.49e-06,0.0,0 STARLINK-3448,1 51728U 22016Q   23134.57485353  .00000849  00000-0  71410-4 0  9995,2 51728  53.2169 263.4819 0001002  95.3951 264.7155 15.08837990 68058,6917.887,95.438,540.445,539.058,0.0
51728.0,STARLINK-3448,PAYLOAD,2023-05-14 15:23:10,15.08841498,9.87e-05,53.2172,263.1841,86.1632,273.9473,8.4704e-05,1.061e-05,0.0,0 STARLINK-3448,1 51728U 22016Q   23134.64109107  .00001061  00000-0  84704-4 0  9990,2 51728  53.2172 263.1841 0000987  86.1632 273.9473 15.08841498 68063,6917.876,95.437,540.424,539.058,0.0
51728.0,STARLINK-3448,PAYLOAD,2023-05-15 12:03:11,15.08833499,8.63e-05,53.217,259.3187,81.7834,278.3256,6.3353e-05,7.21e-06,0.0,0 STARLINK-3448,1 51728U 22016Q   23135.50221740  .00000721  00000-0  63353-4 0  9993,2 51728  53.2170 259.3187 0000863  81.7834 278.3256 15.08833499 68193,6917.9,95.438,540.362,539.168,0.0
51728.0,STARLINK-3448,PAYLOAD,2023-05-15 15:13:57,15.08836605,8.34e-05,53.2157,258.7267,63.7099,296.3978,0.00010489,1.382e-05,0.0,0 STARLINK-3448,1 51728U 22016Q   23135.63469456  .00001382  00000-0  10489-3 0  9990,2 51728  53.2157 258.7267 0000834  63.7099 296.3978 15.08836605 69342,6917.891,95.438,540.333,539.179,0.0
51728.0,STARLINK-3448,PAYLOAD,2023-05-16 13:29:21,15.08836828,0.0001012,53.2165,254.5663,64.7791,295.3306,4.1916e-06,-2.21e-06,0.0,0 STARLINK-3448,1 51728U 22016Q   23136.56205999 -.00000221  00000-0  41916-5 0  9996,2 51728  53.2165 254.5663 0001012  64.7791 295.3306 15.08836828 68355,6917.89,95.438,540.455,539.055,0.0
51728.0,STARLINK-3448,PAYLOAD,2023-05-17 00:37:03,15.08836435,0.0001124,53.2178,252.4886,112.3006,247.8105,3.3545e-05,2.46e-06,0.0,0 STARLINK-3448,1 51728U 22016Q   23137.02573913  .00000246  00000-0  33545-4 0  9996,2 51728  53.2178 252.4886 0001124 112.3006 247.8105 15.08836435 69552,6917.891,95.438,540.534,538.979,0.0
51728.0,STARLINK-3448,PAYLOAD,2023-05-17 14:55:31,15.08840522,0.000102,53.2172,249.8113,107.2409,252.8695,6.409e-05,7.32e-06,0.0,0 STARLINK-3448,1 51728U 22016Q   23137.62189595  .00000732  00000-0  64090-4 0  9990,2 51728  53.2172 249.8113 0001020 107.2409 252.8695 15.08840522 68511,6917.879,95.438,540.449,539.038,0.0
51728.0,STARLINK-3448,PAYLOAD,2023-05-18 02:03:13,15.08837149,9.97e-05,53.2174,247.7265,88.1246,271.9861,5.9604e-05,6.61e-06,0.0,0 STARLINK-3448,1 51728U 22016Q   23138.08557869  .00000661  00000-0  59604-4 0  9990,2 51728  53.2174 247.7265 0000997  88.1246 271.9861 15.08837149 69717,6917.889,95.438,540.444,539.064,0.0
51728.0,STARLINK-3448,PAYLOAD,2023-05-18 13:10:56,15.08835914,9.24e-05,53.2164,245.6431,86.511,273.5988,8.2948e-06,-1.56e-06,0.0,0 STARLINK-3448,1 51728U 22016Q   23138.54926185 -.00000156  00000-0  82948-5 0  9990,2 51728  53.2164 245.6431 0000924  86.5110 273.5988 15.08835914 68658,6917.893,95.438,540.397,539.119,0.0
51728.0,STARLINK-3448,PAYLOAD,2023-05-19 06:40:10,15.08840677,9.79e-05,53.2162,242.3712,80.6373,279.4729,1.1133e-05,-1.11e-06,0.0,0 STARLINK-3448,1 51728U 22016Q   23139.27789948 -.00000111  00000-0  11133-4 0  9993,2 51728  53.2162 242.3712 0000979  80.6373 279.4729 15.08840677 69895,6917.878,95.438,540.421,539.066,0.0
51728.0,STARLINK-3448,PAYLOAD,2023-05-19 11:26:19,15.0884067,9.33e-05,53.2161,241.4794,81.4526,278.6571,4.7972e-05,4.76e-06,0.0,0 STARLINK-3448,1 51728U 22016Q   23139.47661827  .00000476  00000-0  47972-4 0  9993,2 51728  53.2161 241.4794 0000933  81.4526 278.6571 15.08840670 68790,6917.878,95.438,540.389,539.098,0.0
51728.0,STARLINK-3448,PAYLOAD,2023-05-20 11:17:05,15.08897431,0.0001186,53.2163,237.0191,64.9035,295.208,-0.00065469,-0.00010708,0.0,0 STARLINK-3448,1 51728U 22016Q   23140.47019761 -.00010708  00000-0 -65469-3 0  9990,2 51728  53.2163 237.0191 0001186  64.9035 295.2080 15.08897431 70077,6917.705,95.434,540.39,538.749,0.0
51728.0,STARLINK-3448,PAYLOAD,2023-05-20 12:52:29,15.08847595,0.0001025,53.2159,236.7227,69.1969,290.9133,0.00014322,1.993e-05,0.0,0 STARLINK-3448,1 51728U 22016Q   23140.53645054  .00001993  00000-0  14322-3 0  9993,2 51728  53.2159 236.7227 0001025  69.1969 290.9133 15.08847595 70081,6917.857,95.437,540.431,539.013,0.0
